NORAD_CAT_ID,OBJECT_NAME,OBJECT_TYPE,EPOCH,MEAN_MOTION,ECCENTRICITY,INCLINATION,RA_OF_ASC_NODE,ARG_OF_PERICENTER,MEAN_ANOMALY,BSTAR,MEAN_MOTION_DOT,MEAN_MOTION_DDOT,TLE_LINE0,TLE_LINE1,TLE_LINE2,SEMIMAJOR_AXIS,PERIOD,APOGEE,PERIGEE,DECAYED
50167.0,STARLINK-3271,PAYLOAD,2023-03-15 12:07:34,15.08887787,0.0001512,53.2151,113.1565,79.8175,280.2988,0.0015958,0.00025234,0.0,0 STARLINK-3271,1 50167U 21125M   23074.50525538  .00025234  00000-0  15958-2 0  9995,2 50167  53.2151 113.1565 0001512  79.8175 280.2988 15.08887787 71392,6917.734,95.435,540.645,538.553,0.0
50167.0,STARLINK-3271,PAYLOAD,2023-03-15 20:04:29,15.08852979,0.0001473,53.2158,111.6687,95.2917,264.8243,1.3023e-05,-8.1e-07,0.0,0 STARLINK-3271,1 50167U 21125M   23074.83645686 -.00000081  00000-0  13023-4 0  9995,2 50167  53.2158 111.6687 0001473  95.2917 264.8243 15.08852979 71442,6917.841,95.437,540.725,538.687,0.0
50167.0,STARLINK-3271,PAYLOAD,2023-03-16 05:36:48,15.08838962,0.0001543,53.2155,109.8851,105.7129,254.4033,0.00057256,8.836e-05,0.0,0 STARLINK-3271,1 50167U 21125M   23075.23389889  .00008836  00000-0  57256-3 0  9990,2 50167  53.2155 109.8851 0001543 105.7129 254.4033 15.08838962 71506,6917.884,95.438,540.816,538.681,0.0
50167.0,STARLINK-3271,PAYLOAD,2023-03-16 11:58:21,15.08842078,0.0001394,53.2157,108.6947,112.7762,247.3377,0.00019721,2.852e-05,0.0,0 STARLINK-3271,1 50167U 21125M   23075.49885817  .00002852  00000-0  19721-3 0  9997,2 50167  53.2157 108.6947 0001394 112.7762 247.3377 15.08842078 72029,6917.874,95.437,540.703,538.775,0.0
50167.0,STARLINK-3271,PAYLOAD,2023-03-16 13:33:44,15.08843569,0.000137,53.2157,108.3979,112.7145,247.3992,0.00032538,4.895e-05,0.0,0 STARLINK-3271,1 50167U 21125M   23075.56509806  .00004895  00000-0  32538-3 0  9996,2 50167  53.2157 108.3979 0001370 112.7145 247.3992 15.08843569 72030,6917.869,95.437,540.682,538.787,0.0
50167.0,STARLINK-3271,PAYLOAD,2023-03-17 05:27:37,15.08822288,0.0001289,53.2171,105.4249,99.4523,260.6614,0.00021231,3.091e-05,0.0,0 STARLINK-3271,1 50167U 21125M   23076.22751197  .00003091  00000-0  21231-3 0  9997,2 50167  53.2171 105.4249 0001289  99.4523 260.6614 15.08822288 71655,6917.935,95.439,540.691,538.908,0.0
50167.0,STARLINK-3271,PAYLOAD,2023-03-17 08:38:23,15.08825671,0.0001238,53.2168,104.8312,90.0806,270.0328,0.00042922,6.547e-05,0.0,0 STARLINK-3271,1 50167U 21125M   23076.35999364  .00006547  00000-0  42922-3 0  9990,2 50167  53.2168 104.8312 0001238  90.0806 270.0328 15.08825671 72152,6917.924,95.438,540.646,538.933,0.0
50167.0,STARLINK-3271,PAYLOAD,2023-03-17 13:24:33,15.08830214,0.0001072,53.2162,103.9389,78.3632,281.748,0.00076563,0.00011915,0.0,0 STARLINK-3271,1 50167U 21125M   23076.55871540  .00011915  00000-0  76563-3 0  9990,2 50167  53.2162 103.9389 0001072  78.3632 281.7480 15.08830214 72182,6917.91,95.438,540.517,539.034,0.0
50167.0,STARLINK-3271,PAYLOAD,2023-03-18 08:29:11,15.088172,0.0001252,53.217,100.3684,91.3959,268.7176,3.4578e-06,-2.33e-06,0.0,0 STARLINK-3271,1 50167U 21125M   23077.35360809 -.00000233  00000-0  34578-5 0  9994,2 50167  53.2170 100.3684 0001252  91.3959 268.7176 15.08817200 71824,6917.95,95.439,540.681,538.949,0.0
50167.0,STARLINK-3271,PAYLOAD,2023-03-18 13:15:21,15.08817116,0.0001115,53.217,99.4768,91.6221,268.4899,-2.0876e-05,-6.2e-06,0.0,0 STARLINK-3271,1 50167U 21125M   23077.55232996 -.00000620  00000-0 -20876-4 0  9997,2 50167  53.2170  99.4768 0001115  91.6221 268.4899 15.08817116 72330,6917.95,95.439,540.587,539.044,0.0
50167.0,STARLINK-3271,PAYLOAD,2023-03-19 05:09:12,15.08839543,0.0001131,53.2169,96.503,90.3326,269.7795,0.00029809,4.459e-05,0.0,0 STARLINK-3271,1 50167U 21125M   23078.21472484  .00004459  00000-0  29809-3 0  9995,2 50167  53.2169  96.5030 0001131  90.3326 269.7795 15.08839543 71952,6917.882,95.438,540.529,538.964,0.0
50167.0,STARLINK-3271,PAYLOAD,2023-03-19 11:30:44,15.08850717,0.0001031,53.2165,95.3135,83.7837,276.3272,0.00062909,9.741e-05,0.0,0 STARLINK-3271,1 50167U 21125M   23078.47968131  .00009741  00000-0  62909-3 0  9999,2 50167  53.2165  95.3135 0001031  83.7837 276.3272 15.08850717 72471,6917.848,95.437,540.426,538.999,0.0
50167.0,STARLINK-3271,PAYLOAD,2023-03-19 17:52:16,15.08851722,0.0001158,53.2163,94.1253,88.0795,272.0329,0.00042084,6.418e-05,0.0,0 STARLINK-3271,1 50167U 21125M   23078.74464058  .00006418  00000-0  42084-3 0  9998,2 50167  53.2163  94.1253 0001158  88.0795 272.0329 15.08851722 72516,6917.845,95.437,540.511,538.908,0.0
50167.0,STARLINK-3271,PAYLOAD,2023-03-20 06:35:21,15.0885135,0.0001195,53.2172,91.7474,101.6126,258.5,0.00037195,5.638e-05,0.0,0 STARLINK-3271,1 50167U 21125M   23079.27455912  .00005638  00000-0  37195-3 0  9996,2 50167  53.2172  91.7474 0001195 101.6126 258.5000 15.08851350 72113,6917.846,95.437,540.537,538.884,0.0
50167.0,STARLINK-3271,PAYLOAD,2023-03-20 09:46:08,15.08852554,0.0001225,53.2167,91.1537,96.0937,264.0195,0.0003126,4.692e-05,0.0,0 STARLINK-3271,1 50167U 21125M   23079.40703715  .00004692  00000-0  31260-3 0  9994,2 50167  53.2167  91.1537 0001225  96.0937 264.0195 15.08852554 72611,6917.842,95.437,540.554,538.86,0.0
50167.0,STARLINK-3271,PAYLOAD,2023-03-20 17:43:03,15.08848597,0.0001154,53.2153,89.6649,90.6689,269.4435,0.00010163,1.33e-05,0.0,0 STARLINK-3271,1 50167U 21125M   23079.73823675  .00001330  00000-0  10163-3 0  9993,2 50167  53.2153  89.6649 0001154  90.6689 269.4435 15.08848597 72660,6917.854,95.437,540.517,538.921,0.0
50167.0,STARLINK-3271,PAYLOAD,2023-03-21 08:01:31,15.08853633,0.0001239,53.2161,86.9884,104.4704,255.6426,-2.5867e-06,-3.29e-06,0.0,0 STARLINK-3271,1 50167U 21125M   23080.33439003 -.00000329  00000-0 -25867-5 0  9997,2 50167  53.2161  86.9884 0001239 104.4704 255.6426 15.08853633 72277,6917.839,95.437,540.561,538.847,0.0
50167.0,STARLINK-3271,PAYLOAD,2023-03-21 17:33:50,15.08849495,0.0001101,53.2158,85.2038,95.0116,265.1002,-3.48e-05,-8.42e-06,0.0,0 STARLINK-3271,1 50167U 21125M   23080.73182970 -.00000842  00000-0 -34800-4 0  9995,2 50167  53.2158  85.2038 0001101  95.0116 265.1002 15.08849495 72813,6917.851,95.437,540.478,538.955,0.0
50167.0,STARLINK-3271,PAYLOAD,2023-03-22 06:16:55,15.08842392,0.0001144,53.2173,82.8255,98.8466,261.2655,1.0654e-05,-1.18e-06,0.0,0 STARLINK-3271,1 50167U 21125M   23081.26175325 -.00000118  00000-0  10654-4 0  9996,2 50167  53.2173  82.8255 0001144  98.8466 261.2655 15.08842392 72416,6917.873,95.437,540.529,538.947,0.0
50167.0,STARLINK-3271,PAYLOAD,2023-03-22 17:24:37,15.08845114,0.0001126,53.2177,80.7442,90.8163,269.2958,-2.8134e-05,-7.36e-06,0.0,0 STARLINK-3271,1 50167U 21125M   23081.72543421 -.00000736  00000-0 -28134-4 0  9992,2 50167  53.2177  80.7442 0001126  90.8163 269.2958 15.08845114 72960,6917.865,95.437,540.509,538.951,0.0
50167.0,STARLINK-3271,PAYLOAD,2023-03-23 09:18:28,15.08847083,0.0001348,53.2178,77.7706,89.7417,270.373,8.5813e-05,1.078e-05,0.0,0 STARLINK-3271,1 50167U 21125M   23082.38783109  .00001078  00000-0  85813-4 0  9999,2 50167  53.2178  77.7706 0001348  89.7417 270.3730 15.08847083 72581,6917.859,95.437,540.656,538.791,0.0
50167.0,STARLINK-3271,PAYLOAD,2023-03-23 17:15:24,15.08838266,0.000152,53.2186,76.2847,75.277,284.8391,2.3177e-05,8.1e-07,0.0,0 STARLINK-3271,1 50167U 21125M   23082.71903900  .00000081  00000-0  23177-4 0  9997,2 50167  53.2186  76.2847 0001520  75.2770 284.8391 15.08838266 72636,6917.886,95.438,540.802,538.699,0.0
50167.0,STARLINK-3271,PAYLOAD,2023-03-24 05:58:29,15.0885879,0.0001145,53.2175,73.904,85.5437,274.5686,0.00045206,6.918e-05,0.0,0 STARLINK-3271,1 50167U 21125M   23083.24894933  .00006918  00000-0  45206-3 0  9992,2 50167  53.2175  73.9040 0001145  85.5437 274.5686 15.08858790 72716,6917.823,95.436,540.48,538.896,0.0
50167.0,STARLINK-3271,PAYLOAD,2023-03-24 10:44:38,15.08865747,0.0001216,53.2169,73.0129,79.7333,280.3796,0.00043428,6.635e-05,0.0,0 STARLINK-3271,1 50167U 21125M   23083.44766262  .00006635  00000-0  43428-3 0  9997,2 50167  53.2169  73.0129 0001216  79.7333 280.3796 15.08865747 73221,6917.802,95.436,540.508,538.825,0.0
50167.0,STARLINK-3271,PAYLOAD,2023-03-25 05:49:16,15.08850267,0.0001084,53.2161,69.4459,89.4188,270.6928,0.00022285,3.262e-05,0.0,0 STARLINK-3271,1 50167U 21125M   23084.24254918  .00003262  00000-0  22285-3 0  9997,2 50167  53.2161  69.4459 0001084  89.4188 270.6928 15.08850267 72866,6917.849,95.437,540.464,538.964,0.0
50167.0,STARLINK-3271,PAYLOAD,2023-03-25 15:21:35,15.08834074,9.58e-05,53.2174,67.6611,91.9325,268.1777,-0.00020311,-3.518e-05,0.0,0 STARLINK-3271,1 50167U 21125M   23084.63999240 -.00003518  00000-0 -20311-3 0  9998,2 50167  53.2174  67.6611 0000958  91.9325 268.1777 15.08834074 72929,6917.899,95.438,540.426,539.101,0.0
50167.0,STARLINK-3271,PAYLOAD,2023-03-26 10:26:13,15.08840688,0.0001236,53.2183,64.0918,83.6443,276.469,0.00010575,1.396e-05,0.0,0 STARLINK-3271,1 50167U 21125M   23085.43487408  .00001396  00000-0  10575-3 0  9996,2 50167  53.2183  64.0918 0001236  83.6443 276.4690 15.08840688 73047,6917.878,95.438,540.598,538.888,0.0
50167.0,STARLINK-3271,PAYLOAD,2023-03-26 23:09:18,15.08833125,0.0001252,53.2181,61.713,86.7464,273.3672,4.8674e-05,4.87e-06,0.0,0 STARLINK-3271,1 50167U 21125M   23085.96479954  .00000487  00000-0  48674-4 0  9993,2 50167  53.2181  61.7130 0001252  86.7464 273.3672 15.08833125 73606,6917.901,95.438,540.633,538.9,0.0
50167.0,STARLINK-3271,PAYLOAD,2023-03-27 08:41:36,15.08852335,0.0001055,53.2176,59.929,91.4058,268.7055,0.00054034,8.325e-05,0.0,0 STARLINK-3271,1 50167U 21125M   23086.36223330  .00008325  00000-0  54034-3 0  9998,2 50167  53.2176  59.9290 0001055  91.4058 268.7055 15.08852335 73662,6917.843,95.437,540.438,538.978,0.0
50167.0,STARLINK-3271,PAYLOAD,2023-03-28 05:21:38,15.08847323,0.0001665,53.2185,56.0623,73.6986,286.419,0.00041672,6.352e-05,0.0,0 STARLINK-3271,1 50167U 21125M   23087.22335829  .00006352  00000-0  41672-3 0  9993,2 50167  53.2185  56.0623 0001665  73.6986 286.4190 15.08847323 73319,6917.858,95.437,540.875,538.571,0.0
